[{"OBJECT_NAME":"SCS-01 M","OBJECT_ID":"2025-100M","EPOCH":"2026-03-09T23:50:15.541152","MEAN_MOTION":15.31880861,"ECCENTRICITY":0.00078021,"INCLINATION":97.3725,"RA_OF_ASC_NODE":145.6908,"ARG_OF_PERICENTER":292.3826,"MEAN_ANOMALY":67.6588,"EPHEMERIS_TYPE":0,"CLASSIFICATION_TYPE":"U","NORAD_CAT_ID":63993,"ELEMENT_SET_NO":999,"REV_AT_EPOCH":4565,"BSTAR":0.0012010051,"MEAN_MOTION_DOT":0.00037061,"MEAN_MOTION_DDOT":0},{"OBJECT_NAME":"STARLINK-34569","OBJECT_ID":"2025-137S","EPOCH":"2026-03-09T21:35:26.222784","MEAN_MOTION":15.30240762,"ECCENTRICITY":9.505e-5,"INCLINATION":53.157,"RA_OF_ASC_NODE":334.5045,"ARG_OF_PERICENTER":47.2702,"MEAN_ANOMALY":312.8378,"EPHEMERIS_TYPE":0,"CLASSIFICATION_TYPE":"U","NORAD_CAT_ID":64610,"ELEMENT_SET_NO":999,"REV_AT_EPOCH":4076,"BSTAR":0.0010834416,"MEAN_MOTION_DOT":0.00031908,"MEAN_MOTION_DDOT":0}]
